NORAD_CAT_ID,OBJECT_NAME,OBJECT_TYPE,EPOCH,MEAN_MOTION,ECCENTRICITY,INCLINATION,RA_OF_ASC_NODE,ARG_OF_PERICENTER,MEAN_ANOMALY,BSTAR,MEAN_MOTION_DOT,MEAN_MOTION_DDOT,TLE_LINE0,TLE_LINE1,TLE_LINE2,SEMIMAJOR_AXIS,PERIOD,APOGEE,PERIGEE,DECAYED
50178.0,STARLINK-3284,PAYLOAD,2023-10-10 06:06:19,15.08853581,0.0001467,53.2155,245.8926,113.3485,246.7662,0.0015044,0.00023745,0.0,0 STARLINK-3284,1 50178U 21125Y   23283.25438952  .00023745  00000-0  15044-2 0  9995,2 50178  53.2155 245.8926 0001467 113.3485 246.7662 15.08853581103576,6917.839,95.437,540.719,538.689,0.0
50178.0,STARLINK-3284,PAYLOAD,2023-10-10 14:03:15,15.08844317,0.000161,53.2162,244.4062,99.8426,260.2748,0.0013929,0.00021952,0.0,0 STARLINK-3284,1 50178U 21125Y   23283.58559269  .00021952  00000-0  13929-2 0  9994,2 50178  53.2162 244.4062 0001610  99.8426 260.2748 15.08844317103093,6917.867,95.437,540.846,538.618,0.0
50178.0,STARLINK-3284,PAYLOAD,2023-10-10 22:00:11,15.08844743,0.0002961,53.2166,242.9206,93.5658,266.5673,0.0012789,0.00020128,0.0,0 STARLINK-3284,1 50178U 21125Y   23283.91679902  .00020128  00000-0  12789-2 0  9995,2 50178  53.2166 242.9206 0002961  93.5658 266.5673 15.08844743103671,6917.866,95.437,541.779,537.683,0.0
50178.0,STARLINK-3284,PAYLOAD,2023-10-11 04:21:43,15.08840879,0.0001372,53.2157,241.731,104.689,255.4255,0.0018599,0.00029437,0.0,0 STARLINK-3284,1 50178U 21125Y   23284.18175844  .00029437  00000-0  18599-2 0  9998,2 50178  53.2157 241.7310 0001372 104.6890 255.4255 15.08840879103186,6917.878,95.437,540.692,538.794,0.0
50178.0,STARLINK-3284,PAYLOAD,2023-10-11 13:54:02,15.08849068,0.0001562,53.2159,239.9435,90.2214,269.8957,0.0015083,0.00023804,0.0,0 STARLINK-3284,1 50178U 21125Y   23284.57920067  .00023804  00000-0  15083-2 0  9993,2 50178  53.2159 239.9435 0001562  90.2214 269.8957 15.08849068103778,6917.853,95.437,540.798,538.637,0.0
50178.0,STARLINK-3284,PAYLOAD,2023-10-12 04:12:31,15.08843779,0.0001537,53.2158,237.2726,109.7543,250.3615,0.00054771,8.44e-05,0.0,0 STARLINK-3284,1 50178U 21125Y   23285.17536226  .00008440  00000-0  54771-3 0  9997,2 50178  53.2158 237.2726 0001537 109.7543 250.3615 15.08843779103335,6917.869,95.437,540.797,538.671,0.0
50178.0,STARLINK-3284,PAYLOAD,2023-10-12 13:44:50,15.08849967,0.0001278,53.2152,235.4861,90.4751,269.6388,0.00073228,0.00011389,0.0,0 STARLINK-3284,1 50178U 21125Y   23285.57280147  .00011389  00000-0  73228-3 0  9993,2 50178  53.2152 235.4861 0001278  90.4751 269.6388 15.08849967103928,6917.85,95.437,540.599,538.831,0.0
50178.0,STARLINK-3284,PAYLOAD,2023-10-13 04:03:18,15.08852899,0.0001342,53.2155,232.809,88.6851,271.4295,0.00048296,7.409e-05,0.0,0 STARLINK-3284,1 50178U 21125Y   23286.16895951  .00007409  00000-0  48296-3 0  9999,2 50178  53.2155 232.8090 0001342  88.6851 271.4295 15.08852899103485,6917.841,95.437,540.634,538.778,0.0
50178.0,STARLINK-3284,PAYLOAD,2023-10-13 13:35:36,15.08850852,0.000143,53.2153,231.0224,99.6675,260.4478,0.00041455,6.318e-05,0.0,0 STARLINK-3284,1 50178U 21125Y   23286.56639843  .00006318  00000-0  41455-3 0  9997,2 50178  53.2153 231.0224 0001430  99.6675 260.4478 15.08850852104071,6917.847,95.437,540.701,538.723,0.0
50178.0,STARLINK-3284,PAYLOAD,2023-10-14 13:26:23,15.08842523,0.0001747,53.216,226.5648,84.6485,275.4706,0.00019481,2.814e-05,0.0,0 STARLINK-3284,1 50178U 21125Y   23287.55999809  .00002814  00000-0  19481-3 0  9999,2 50178  53.2160 226.5648 0001747  84.6485 275.4706 15.08842523104225,6917.873,95.437,540.946,538.529,0.0
50178.0,STARLINK-3284,PAYLOAD,2023-10-14 19:47:56,15.08825754,0.0001552,53.2147,225.3757,92.6156,267.5013,-0.00018517,-3.233e-05,0.0,0 STARLINK-3284,1 50178U 21125Y   23287.82496189 -.00003233  00000-0 -18517-3 0  9999,2 50178  53.2147 225.3757 0001552  92.6156 267.5013 15.08825754103731,6917.924,95.438,540.863,538.715,0.0
50178.0,STARLINK-3284,PAYLOAD,2023-10-15 05:20:16,15.08831429,0.0001342,53.2155,223.5905,91.2762,268.8384,0.0023929,0.00037992,0.0,0 STARLINK-3284,1 50178U 21125Y   23288.22240859  .00037992  00000-0  23929-2 0  9994,2 50178  53.2155 223.5905 0001342  91.2762 268.8384 15.08831429103797,6917.907,95.438,540.7,538.843,0.0
50178.0,STARLINK-3284,PAYLOAD,2023-10-16 05:11:03,15.08862768,0.0001497,53.2157,219.1298,91.1381,268.9782,0.0016018,0.00025313,0.0,0 STARLINK-3284,1 50178U 21125Y   23289.21600914  .00025313  00000-0  16018-2 0  9991,2 50178  53.2157 219.1298 0001497  91.1381 268.9782 15.08862768103942,6917.811,95.436,540.711,538.64,0.0
50178.0,STARLINK-3284,PAYLOAD,2023-10-18 01:41:50,15.0884653,0.000128,53.2154,210.8035,84.8314,275.2824,0.00063235,9.792e-05,0.0,0 STARLINK-3284,1 50178U 21125Y   23291.07072288  .00009792  00000-0  63235-3 0  9992,2 50178  53.2154 210.8035 0001280  84.8314 275.2824 15.08846530104758,6917.86,95.437,540.611,538.84,0.0
50178.0,STARLINK-3284,PAYLOAD,2023-10-18 11:14:09,15.08844006,0.0001163,53.2146,209.0175,94.452,265.6605,0.00056119,8.656e-05,0.0,0 STARLINK-3284,1 50178U 21125Y   23291.46816288  .00008656  00000-0  56119-3 0  9992,2 50178  53.2146 209.0175 0001163  94.4520 265.6605 15.08844006104284,6917.868,95.437,540.538,538.929,0.0
50178.0,STARLINK-3284,PAYLOAD,2023-10-19 01:32:37,15.08848924,0.000112,53.2148,206.3436,90.8031,269.309,0.00078858,0.00012288,0.0,0 STARLINK-3284,1 50178U 21125Y   23292.06432197  .00012288  00000-0  78858-3 0  9992,2 50178  53.2148 206.3436 0001120  90.8031 269.3090 15.08848924104907,6917.853,95.437,540.493,538.943,0.0
50178.0,STARLINK-3284,PAYLOAD,2023-10-20 01:23:24,15.08849839,8.71e-05,53.2133,201.8815,70.7273,289.3813,0.00032831,4.943e-05,0.0,0 STARLINK-3284,1 50178U 21125Y   23293.05791818  .00004943  00000-0  32831-3 0  9990,2 50178  53.2133 201.8815 0000871  70.7273 289.3813 15.08849839104528,6917.85,95.437,540.318,539.113,0.0
50178.0,STARLINK-3284,PAYLOAD,2023-10-20 04:34:10,15.0885284,0.0001101,53.214,201.2875,86.2916,273.8202,0.00030666,4.598e-05,0.0,0 STARLINK-3284,1 50178U 21125Y   23293.19039616  .00004598  00000-0  30666-3 0  9996,2 50178  53.2140 201.2875 0001101  86.2916 273.8202 15.08852840105076,6917.841,95.437,540.468,538.944,0.0
50178.0,STARLINK-3284,PAYLOAD,2023-10-20 22:03:27,15.08804331,0.000138,53.2142,198.0176,107.9516,252.1626,-0.00048785,-8.036e-05,0.0,0 STARLINK-3284,1 50178U 21125Y   23293.91906313 -.00008036  00000-0 -48785-3 0  9997,2 50178  53.2142 198.0176 0001380 107.9516 252.1626 15.08804331105185,6917.989,95.44,540.809,538.9,0.0
50178.0,STARLINK-3284,PAYLOAD,2023-10-21 02:49:36,15.08806122,0.0001378,53.2146,197.1255,86.9925,273.1225,-0.00025934,-4.409e-05,0.0,0 STARLINK-3284,1 50178U 21125Y   23294.11778914 -.00004409  00000-0 -25934-3 0  9995,2 50178  53.2146 197.1255 0001378  86.9925 273.1225 15.08806122104686,6917.984,95.44,540.802,538.896,0.0
50178.0,STARLINK-3284,PAYLOAD,2023-10-21 10:46:31,15.08830955,0.0001139,53.2148,195.639,92.0032,268.109,0.00035658,5.39e-05,0.0,0 STARLINK-3284,1 50178U 21125Y   23294.44898064  .00005390  00000-0  35658-3 0  9992,2 50178  53.2148 195.6390 0001139  92.0032 268.1090 15.08830955104734,6917.908,95.438,540.561,538.985,0.0
50178.0,STARLINK-3284,PAYLOAD,2023-10-21 21:54:13,15.0885511,0.0001429,53.2151,193.558,79.7908,280.3246,0.0013984,0.00022047,0.0,0 STARLINK-3284,1 50178U 21125Y   23294.91265914  .00022047  00000-0  13984-2 0  9991,2 50178  53.2151 193.5580 0001429  79.7908 280.3246 15.08855110105338,6917.834,95.437,540.688,538.711,0.0
50178.0,STARLINK-3284,PAYLOAD,2023-10-22 02:40:22,15.08867091,0.0001585,53.2148,192.6658,82.6252,277.492,0.0015675,0.00024765,0.0,0 STARLINK-3284,1 50178U 21125Y   23295.11137475  .00024765  00000-0  15675-2 0  9992,2 50178  53.2148 192.6658 0001585  82.6252 277.4920 15.08867091104839,6917.798,95.436,540.759,538.566,0.0
50178.0,STARLINK-3284,PAYLOAD,2023-10-22 10:37:18,15.08846301,0.0001965,53.2146,191.1785,102.2454,257.8758,0.00056445,8.708e-05,0.0,0 STARLINK-3284,1 50178U 21125Y   23295.44257854  .00008708  00000-0  56445-3 0  9992,2 50178  53.2146 191.1785 0001965 102.2454 257.8758 15.08846301104884,6917.861,95.437,541.085,538.367,0.0
50178.0,STARLINK-3284,PAYLOAD,2023-10-22 21:45:00,15.08840121,0.0001665,53.2159,189.0958,98.7966,261.3214,-7.6973e-05,-1.513e-05,0.0,0 STARLINK-3284,1 50178U 21125Y   23295.90625794 -.00001513  00000-0 -76973-4 0  9993,2 50178  53.2159 189.0958 0001665  98.7966 261.3214 15.08840121105488,6917.88,95.438,540.897,538.593,0.0
50178.0,STARLINK-3284,PAYLOAD,2023-10-22 23:20:23,15.08842577,0.0001566,53.2155,188.7972,104.0395,256.0771,-4.274e-05,-9.68e-06,0.0,0 STARLINK-3284,1 50178U 21125Y   23295.97249624 -.00000968  00000-0 -42740-4 0  9992,2 50178  53.2155 188.7972 0001566 104.0395 256.0771 15.08842577104961,6917.873,95.437,540.821,538.654,0.0
50178.0,STARLINK-3284,PAYLOAD,2023-10-23 21:35:47,15.08847445,0.0001615,53.215,184.6348,104.0795,256.0376,0.00014739,2.059e-05,0.0,0 STARLINK-3284,1 50178U 21125Y   23296.89985340  .00002059  00000-0  14739-3 0  9993,2 50178  53.2150 184.6348 0001615 104.0795 256.0376 15.08847445105632,6917.858,95.437,540.84,538.605,0.0
50178.0,STARLINK-3284,PAYLOAD,2023-10-24 02:21:56,15.08850128,0.0001554,53.2145,183.743,102.274,257.8426,0.0003172,4.765e-05,0.0,0 STARLINK-3284,1 50178U 21125Y   23297.09857316  .00004765  00000-0  31720-3 0  9992,2 50178  53.2145 183.7430 0001554 102.2740 257.8426 15.08850128105132,6917.849,95.437,540.789,538.639,0.0
50178.0,STARLINK-3284,PAYLOAD,2023-10-25 21:17:21,15.08844298,0.0001495,53.2156,175.7139,96.5794,263.5369,8.8311e-05,1.118e-05,0.0,0 STARLINK-3284,1 50178U 21125Y   23298.88705212  .00001118  00000-0  88311-4 0  9995,2 50178  53.2156 175.7139 0001495  96.5794 263.5369 15.08844298105400,6917.867,95.437,540.766,538.698,0.0
50178.0,STARLINK-3284,PAYLOAD,2023-10-25 22:52:44,15.08849642,0.0001419,53.2151,175.4162,97.4086,262.7067,0.00018524,2.662e-05,0.0,0 STARLINK-3284,1 50178U 21125Y   23298.95328984  .00002662  00000-0  18524-3 0  9993,2 50178  53.2151 175.4162 0001419  97.4086 262.7067 15.08849642105941,6917.851,95.437,540.698,538.734,0.0
